{
  "type": "FeatureCollection",
  "features": [
    {
      "type": "Feature",
      "properties": {
        "norad_id": 66580,
        "name": "STARLINK-35872",
        "group": "last-30-days",
        "lat": 34.404805907499686,
        "lon": -93.00719928700482,
        "alt_km": 410.8159380267616,
        "timestamp": "2025-12-10T11:33:52.172493+00:00",
        "meta_object_name": "STARLINK-35872",
        "meta_object_id": "2025-268Z",
        "meta_epoch": "2025-12-10T04:00:01.998720",
        "meta_mean_motion": 15.50612114,
        "meta_eccentricity": 0.0001907,
        "meta_inclination": 43.0008,
        "meta_ra_of_asc_node": 136.1357,
        "meta_arg_of_pericenter": 269.7201,
        "meta_mean_anomaly": 252.9008,
        "meta_ephemeris_type": 0,
        "meta_classification_type": "U",
        "meta_norad_cat_id": 66580,
        "meta_element_set_no": 999,
        "meta_rev_at_epoch": 425,
        "meta_bstar": -0.0023311,
        "meta_mean_motion_dot": -0.0013493,
        "meta_mean_motion_ddot": 0,
        "tle_line1": "1 66580U 25268Z   25344.16668980 -.00134930  00000+0 -23311-2 0  9993",
        "tle_line2": "2 66580  43.0008 136.1357 0001907 269.7201 252.9008 15.50612114  4255"
      },
      "geometry": {
        "type": "Point",
        "coordinates": [
          -93.00719928700482,
          34.404805907499686
        ]
      }
    },
    {
      "type": "Feature",
      "properties": {
        "norad_id": 66581,
        "name": "STARLINK-35744",
        "group": "last-30-days",
        "lat": 33.461330844411656,
        "lon": -90.8874000346473,
        "alt_km": 410.8861465347172,
        "timestamp": "2025-12-10T11:33:52.172503+00:00",
        "meta_object_name": "STARLINK-35744",
        "meta_object_id": "2025-268AA",
        "meta_epoch": "2025-12-10T04:00:01.998720",
        "meta_mean_motion": 15.50785989,
        "meta_eccentricity": 0.0001709,
        "meta_inclination": 43.0005,
        "meta_ra_of_asc_node": 136.1298,
        "meta_arg_of_pericenter": 271.7665,
        "meta_mean_anomaly": 252.7528,
        "meta_ephemeris_type": 0,
        "meta_classification_type": "U",
        "meta_norad_cat_id": 66581,
        "meta_element_set_no": 999,
        "meta_rev_at_epoch": 420,
        "meta_bstar": -0.0070317,
        "meta_mean_motion_dot": -0.00395629,
        "meta_mean_motion_ddot": 0,
        "tle_line1": "1 66581U 25268AA  25344.16668980 -.00395629  00000+0 -70317-2 0  9996",
        "tle_line2": "2 66581  43.0005 136.1298 0001709 271.7665 252.7528 15.50785989  4205"
      },
      "geometry": {
        "type": "Point",
        "coordinates": [
          -90.8874000346473,
          33.461330844411656
        ]
      }
    },
    {
      "type": "Feature",
      "properties": {
        "norad_id": 66582,
        "name": "STARLINK-35746",
        "group": "last-30-days",
        "lat": 32.56178576956107,
        "lon": -88.97641463481098,
        "alt_km": 411.04544781492496,
        "timestamp": "2025-12-10T11:33:52.172512+00:00",
        "meta_object_name": "STARLINK-35746",
        "meta_object_id": "2025-268AB",
        "meta_epoch": "2025-12-10T04:00:01.998720",
        "meta_mean_motion": 15.50652987,
        "meta_eccentricity": 0.0001896,
        "meta_inclination": 43.0006,
        "meta_ra_of_asc_node": 136.1249,
        "meta_arg_of_pericenter": 271.7822,
        "meta_mean_anomaly": 254.6444,
        "meta_ephemeris_type": 0,
        "meta_classification_type": "U",
        "meta_norad_cat_id": 66582,
        "meta_element_set_no": 999,
        "meta_rev_at_epoch": 425,
        "meta_bstar": -0.003034,
        "meta_mean_motion_dot": -0.00174883,
        "meta_mean_motion_ddot": 0,
        "tle_line1": "1 66582U 25268AB  25344.16668980 -.00174883  00000+0 -30340-2 0  9996",
        "tle_line2": "2 66582  43.0006 136.1249 0001896 271.7822 254.6444 15.50652987  4259"
      },
      "geometry": {
        "type": "Point",
        "coordinates": [
          -88.97641463481098,
          32.56178576956107
        ]
      }
    },
    {
      "type": "Feature",
      "properties": {
        "norad_id": 66583,
        "name": "STARLINK-35941",
        "group": "last-30-days",
        "lat": 31.59173212307643,
        "lon": -87.0216637884634,
        "alt_km": 411.18805512720246,
        "timestamp": "2025-12-10T11:33:52.172522+00:00",
        "meta_object_name": "STARLINK-35941",
        "meta_object_id": "2025-268AC",
        "meta_epoch": "2025-12-10T04:00:01.998720",
        "meta_mean_motion": 15.50659868,
        "meta_eccentricity": 0.0001886,
        "meta_inclination": 43.0006,
        "meta_ra_of_asc_node": 136.1199,
        "meta_arg_of_pericenter": 272.2728,
        "meta_mean_anomaly": 256.0728,
        "meta_ephemeris_type": 0,
        "meta_classification_type": "U",
        "meta_norad_cat_id": 66583,
        "meta_element_set_no": 999,
        "meta_rev_at_epoch": 425,
        "meta_bstar": -0.003297,
        "meta_mean_motion_dot": -0.00189705,
        "meta_mean_motion_ddot": 0,
        "tle_line1": "1 66583U 25268AC  25344.16668980 -.00189705  00000+0 -32970-2 0  9997",
        "tle_line2": "2 66583  43.0006 136.1199 0001886 272.2728 256.0728 15.50659868  4250"
      },
      "geometry": {
        "type": "Point",
        "coordinates": [
          -87.0216637884634,
          31.59173212307643
        ]
      }
    },
    {
      "type": "Feature",
      "properties": {
        "norad_id": 66584,
        "name": "STARLINK-35939",
        "group": "last-30-days",
        "lat": 30.59585779047505,
        "lon": -85.11302628351702,
        "alt_km": 411.35202179853513,
        "timestamp": "2025-12-10T11:33:52.172532+00:00",
        "meta_object_name": "STARLINK-35939",
        "meta_object_id": "2025-268AD",
        "meta_epoch": "2025-12-10T04:00:01.998720",
        "meta_mean_motion": 15.50607904,
        "meta_eccentricity": 0.0001897,
        "meta_inclination": 43.0007,
        "meta_ra_of_asc_node": 136.116,
        "meta_arg_of_pericenter": 270.0886,
        "meta_mean_anomaly": 260.2138,
        "meta_ephemeris_type": 0,
        "meta_classification_type": "U",
        "meta_norad_cat_id": 66584,
        "meta_element_set_no": 999,
        "meta_rev_at_epoch": 425,
        "meta_bstar": -0.0024402,
        "meta_mean_motion_dot": -0.00141101,
        "meta_mean_motion_ddot": 0,
        "tle_line1": "1 66584U 25268AD  25344.16668980 -.00141101  00000+0 -24402-2 0  9997",
        "tle_line2": "2 66584  43.0007 136.1160 0001897 270.0886 260.2138 15.50607904  4259"
      },
      "geometry": {
        "type": "Point",
        "coordinates": [
          -85.11302628351702,
          30.59585779047505
        ]
      }
    },
    {
      "type": "Feature",
      "properties": {
        "norad_id": 66585,
        "name": "STARLINK-35963",
        "group": "last-30-days",
        "lat": 29.576555402672295,
        "lon": -83.2517938833015,
        "alt_km": 411.41173823327426,
        "timestamp": "2025-12-10T11:33:52.172542+00:00",
        "meta_object_name": "STARLINK-35963",
        "meta_object_id": "2025-268AE",
        "meta_epoch": "2025-12-10T04:00:01.998720",
        "meta_mean_motion": 15.50602648,
        "meta_eccentricity": 0.0001711,
        "meta_inclination": 43.0007,
        "meta_ra_of_asc_node": 136.1115,
        "meta_arg_of_pericenter": 274.8024,
        "meta_mean_anomaly": 257.4001,
        "meta_ephemeris_type": 0,
        "meta_classification_type": "U",
        "meta_norad_cat_id": 66585,
        "meta_element_set_no": 999,
        "meta_rev_at_epoch": 425,
        "meta_bstar": -0.001925,
        "meta_mean_motion_dot": -0.00111769,
        "meta_mean_motion_ddot": 0,
        "tle_line1": "1 66585U 25268AE  25344.16668980 -.00111769  00000+0 -19250-2 0  9990",
        "tle_line2": "2 66585  43.0007 136.1115 0001711 274.8024 257.4001 15.50602648  4258"
      },
      "geometry": {
        "type": "Point",
        "coordinates": [
          -83.2517938833015,
          29.576555402672295
        ]
      }
    },
    {
      "type": "Feature",
      "properties": {
        "norad_id": 66586,
        "name": "TJS-21",
        "group": "last-30-days",
        "lat": 62.841081746717244,
        "lon": -96.74030481997309,
        "alt_km": 37880.15058028327,
        "timestamp": "2025-12-10T11:33:52.172554+00:00",
        "meta_object_name": "TJS-21",
        "meta_object_id": "2025-269A",
        "meta_epoch": "2025-12-09T17:35:27.978144",
        "meta_mean_motion": 2.00565752,
        "meta_eccentricity": 0.6805657,
        "meta_inclination": 63.268,
        "meta_ra_of_asc_node": 162.6671,
        "meta_arg_of_pericenter": 269.7843,
        "meta_mean_anomaly": 18.6559,
        "meta_ephemeris_type": 0,
        "meta_classification_type": "U",
        "meta_norad_cat_id": 66586,
        "meta_element_set_no": 999,
        "meta_rev_at_epoch": 37,
        "meta_bstar": -0.041607,
        "meta_mean_motion_dot": 1.08e-05,
        "meta_mean_motion_ddot": 0,
        "tle_line1": "1 66586U 25269A   25343.73296271  .00001080  00000+0 -41607-1 0  9997",
        "tle_line2": "2 66586  63.2680 162.6671 6805657 269.7843  18.6559  2.00565752   379"
      },
      "geometry": {
        "type": "Point",
        "coordinates": [
          -96.74030481997309,
          62.841081746717244
        ]
      }
    }
  ]
}